NORAD_CAT_ID,OBJECT_NAME,OBJECT_TYPE,EPOCH,MEAN_MOTION,ECCENTRICITY,INCLINATION,RA_OF_ASC_NODE,ARG_OF_PERICENTER,MEAN_ANOMALY,BSTAR,MEAN_MOTION_DOT,MEAN_MOTION_DDOT,TLE_LINE0,TLE_LINE1,TLE_LINE2,SEMIMAJOR_AXIS,PERIOD,APOGEE,PERIGEE,DECAYED
52664.0,STARLINK-4070,PAYLOAD,2022-07-23 22:00:00,15.08853632,0.0001717,53.2174,341.2603,45.1641,161.1031,-0.0010935,-0.00017656,0.0,0 STARLINK-4070,1 52664U 22053J   22204.91667824 -.00017656  00000-0 -10935-2 0  9995,2 52664  53.2174 341.2603 0001717  45.1641 161.1031 15.08853632  1301,6917.839,95.437,540.8919999999998,538.516,0.0
52664.0,STARLINK-4070,PAYLOAD,2022-07-24 04:00:00,15.08820857,0.0001486999999999,53.2176,340.1366,49.4769,75.4993,0.00033804,5.093e-05,0.0,0 STARLINK-4070,1 52664U 22053J   22205.16667824  .00005093  00000-0  33804-3 0  9994,2 52664  53.2176 340.1366 0001487  49.4769  75.4993 15.08820857 11082,6917.939,95.439,540.8330000000002,538.775,0.0
52664.0,STARLINK-4070,PAYLOAD,2022-07-24 14:00:01,15.08836786,0.0001585999999999,53.2175,338.2673,48.1613,181.2818,-0.001072,-0.00017307,0.0,0 STARLINK-4070,1 52664U 22053J   22205.58334491 -.00017307  00000-0 -10720-2 0  9995,2 52664  53.2175 338.2673 0001586  48.1613 181.2818 15.08836786  1308,6917.89,95.438,540.852,538.658,0.0
52664.0,STARLINK-4070,PAYLOAD,2022-07-24 22:00:00,15.08850266,0.0001663,53.217,336.7712,45.6492,195.3747,-0.0025315999999999,-0.00040365,0.0,0 STARLINK-4070,1 52664U 22053J   22205.91667824 -.00040365  00000-0 -25316-2 0  9998,2 52664  53.2170 336.7712 0001663  45.6492 195.3747 15.08850266  1309,6917.849,95.437,540.864,538.564,0.0
52664.0,STARLINK-4070,PAYLOAD,2022-07-25 06:00:00,15.0879087,0.0001564,53.217,335.2732,54.2954,198.3256,0.0029801,0.00047396,0.0,0 STARLINK-4070,1 52664U 22053J   22206.25001157  .00047396  00000-0  29801-2 0  9999,2 52664  53.2170 335.2732 0001564  54.2954 198.3256 15.08790870 11240,6918.031,95.441,540.9780000000002,538.814,0.0
52664.0,STARLINK-4070,PAYLOAD,2022-07-25 14:00:01,15.08823433,0.0001693,53.2171,333.7785,51.2299,212.9449,-0.0010501,-0.00016954,0.0,0 STARLINK-4070,1 52664U 22053J   22206.58334491 -.00016954  00000-0 -10501-2 0  9990,2 52664  53.2171 333.7785 0001693  51.2299 212.9449 15.08823433  1309,6917.931,95.439,540.967,538.625,0.0
52664.0,STARLINK-4070,PAYLOAD,2022-07-25 22:00:00,15.08829582,0.0001715,53.2168,332.2822,47.8011,227.9381,-0.00068296,-0.00011138,0.0,0 STARLINK-4070,1 52664U 22053J   22206.91667824 -.00011138  00000-0 -68296-3 0  9990,2 52664  53.2168 332.2822 0001715  47.8011 227.9381 15.08829582 11346,6917.9119999999975,95.438,540.964,538.591,0.0
52664.0,STARLINK-4070,PAYLOAD,2022-07-26 14:00:01,15.08836246,0.0001745,53.2169,329.2896,50.9253,247.9695,-0.00091563,-0.00014829,0.0,0 STARLINK-4070,1 52664U 22053J   22207.58334491 -.00014829  00000-0 -91563-3 0  9998,2 52664  53.2169 329.2896 0001745  50.9253 247.9695 15.08836246  1300,6917.892,95.438,540.964,538.55,0.0
52664.0,STARLINK-4070,PAYLOAD,2022-07-26 20:00:01,15.08820709,0.0001789,53.2169,328.1677,47.0631,170.5237,0.0021623,0.00034275,0.0,0 STARLINK-4070,1 52664U 22053J   22207.83334491  .00034275  00000-0  21623-2 0  9990,2 52664  53.2169 328.1677 0001789  47.0631 170.5237 15.08820709 11480,6917.939,95.439,541.0419999999998,538.567,0.0
52664.0,STARLINK-4070,PAYLOAD,2022-07-26 22:00:00,15.08847824,0.0001753,53.2168,327.7931,47.3872,263.0883,-0.001153,-0.00018595,0.0,0 STARLINK-4070,1 52664U 22053J   22207.91667824 -.00018595  00000-0 -11530-2 0  9993,2 52664  53.2168 327.7931 0001753  47.3872 263.0883 15.08847824  1300,6917.856,95.437,540.934,538.509,0.0
52664.0,STARLINK-4070,PAYLOAD,2022-07-27 14:00:01,15.08850846,0.0001818,53.2171,324.8006,50.3196,283.35,-0.00090145,-0.0001460999999999,0.0,0 STARLINK-4070,1 52664U 22053J   22208.58334491 -.00014610  00000-0 -90145-3 0  9992,2 52664  53.2171 324.8006 0001818  50.3196 283.3500 15.08850846  1309,6917.847,95.437,540.97,538.455,0.0
52664.0,STARLINK-4070,PAYLOAD,2022-07-27 22:00:00,15.08866912,0.000181,53.2172,323.3040000000001,47.1801,298.0896,-0.00141,-0.00022675,0.0,0 STARLINK-4070,1 52664U 22053J   22208.91667824 -.00022675  00000-0 -14100-2 0  9994,2 52664  53.2172 323.3040 0001810  47.1801 298.0896 15.08866912  1303,6917.7980000000025,95.436,540.915,538.411,0.0
52664.0,STARLINK-4070,PAYLOAD,2022-07-28 06:00:00,15.08838338,0.0001704,53.2175,321.8063,54.0253,302.8655,0.0028808,0.00045857,0.0,0 STARLINK-4070,1 52664U 22053J   22209.25001157  .00045857  00000-0  28808-2 0  9998,2 52664  53.2175 321.8063 0001704  54.0253 302.8655 15.08838338 11707,6917.885,95.438,540.929,538.572,0.0
52664.0,STARLINK-4070,PAYLOAD,2022-07-28 14:00:01,15.08878686,0.0001846,53.2176,320.3117,48.5942,319.9071,-0.003304,-0.00052544,0.0,0 STARLINK-4070,1 52664U 22053J   22209.58334491 -.00052544  00000-0 -33040-2 0  9991,2 52664  53.2176 320.3117 0001846  48.5942 319.9071 15.08878686  1308,6917.762,95.435,540.904,538.35,0.0
52664.0,STARLINK-4070,PAYLOAD,2022-07-28 22:00:00,15.08856373,0.0001774,53.2176,318.8149,45.1919,334.9268,-0.0016795,-0.0002693,0.0,0 STARLINK-4070,1 52664U 22053J   22209.91667824 -.00026930  00000-0 -16795-2 0  9995,2 52664  53.2176 318.8149 0001774  45.1919 334.9268 15.08856373 11802,6917.83,95.437,540.923,538.4680000000002,0.0
52664.0,STARLINK-4070,PAYLOAD,2022-07-29 14:00:01,15.08863449,0.0001808,53.2179,315.8229,46.2849,357.0396,-0.0024885,-0.000397,0.0,0 STARLINK-4070,1 52664U 22053J   22210.58334491 -.00039700  00000-0 -24885-2 0  9999,2 52664  53.2179 315.8229 0001808  46.2849 357.0396 15.08863449 11904,6917.809,95.436,540.924,538.423,0.0
52664.0,STARLINK-4070,PAYLOAD,2022-07-29 22:00:00,15.08847682,0.0001712,53.2178,314.326,43.7822,11.1442,-0.0025737,-0.00041024,0.0,0 STARLINK-4070,1 52664U 22053J   22210.91667824 -.00041024  00000-0 -25737-2 0  9994,2 52664  53.2178 314.3260 0001712  43.7822  11.1442 15.08847682  1303,6917.857,95.437,540.906,538.538,0.0
52664.0,STARLINK-4070,PAYLOAD,2022-07-30 12:00:00,15.08842073,0.0001695,53.2179,311.7078,45.806,299.3912,-0.0015325,-0.00024597,0.0,0 STARLINK-4070,1 52664U 22053J   22211.50001157 -.00024597  00000-0 -15325-2 0  9999,2 52664  53.2179 311.7078 0001695  45.8060 299.3912 15.08842073 12043,6917.874,95.437,540.9119999999998,538.566,0.0
52664.0,STARLINK-4070,PAYLOAD,2022-07-30 14:00:01,15.08833356,0.0001756,53.2178,311.3342,45.0172,33.0793,-0.00062006,-0.00010141,0.0,0 STARLINK-4070,1 52664U 22053J   22211.58334491 -.00010141  00000-0 -62006-3 0  9996,2 52664  53.2178 311.3342 0001756  45.0172  33.0793 15.08833356  1307,6917.901,95.438,540.98,538.5509999999998,0.0
52664.0,STARLINK-4070,PAYLOAD,2022-07-30 22:00:00,15.08850087,0.0001692,53.2176,309.8372,44.3327,45.3432,-0.0020647,-0.00033007,0.0,0 STARLINK-4070,1 52664U 22053J   22211.91667824 -.00033007  00000-0 -20647-2 0  9992,2 52664  53.2176 309.8372 0001692  44.3327  45.3432 15.08850087  1309,6917.85,95.437,540.885,538.544,0.0
52664.0,STARLINK-4070,PAYLOAD,2022-07-31 06:00:02,15.08831323,0.0001568,53.2177,308.3399,50.7787,50.5554,0.0016012,0.00025281,0.0,0 STARLINK-4070,1 52664U 22053J   22212.25002315  .00025281  00000-0  16012-2 0  9992,2 52664  53.2177 308.3399 0001568  50.7787  50.5554 15.08831323 12156,6917.906999999997,95.438,540.857,538.687,0.0
52664.0,STARLINK-4070,PAYLOAD,2022-07-31 14:00:01,15.08839879,0.0001736,53.2174,306.8455,45.2091,67.6586,-0.00022826,-3.919e-05,0.0,0 STARLINK-4070,1 52664U 22053J   22212.58334491 -.00003919  00000-0 -22826-3 0  9998,2 52664  53.2174 306.8455 0001736  45.2091  67.6586 15.08839879  1306,6917.880999999999,95.438,540.947,538.545,0.0
52664.0,STARLINK-4070,PAYLOAD,2022-07-31 20:00:01,15.08852202,0.0001713,53.2169,305.7229,42.8078,348.7513,-0.00097117,-0.00015716,0.0,0 STARLINK-4070,1 52664U 22053J   22212.83334491 -.00015716  00000-0 -97117-3 0  9999,2 52664  53.2169 305.7229 0001713  42.8078 348.7513 15.08852202 12243,6917.843000000003,95.437,540.893,538.523,0.0
52664.0,STARLINK-4070,PAYLOAD,2022-07-31 22:00:00,15.0885889,0.0001659,53.217,305.3483,45.387,79.0709,-0.0020383,-0.00032598,0.0,0 STARLINK-4070,1 52664U 22053J   22212.91667824 -.00032598  00000-0 -20383-2 0  9994,2 52664  53.2170 305.3483 0001659  45.3870  79.0709 15.08858890  1305,6917.823,95.436,540.835,538.54,0.0
52664.0,STARLINK-4070,PAYLOAD,2022-08-01 14:00:01,15.08844842,0.0001737,53.2167,302.3566,45.7176,101.9558,0.00030808,4.619e-05,0.0,0 STARLINK-4070,1 52664U 22053J   22213.58334491  .00004619  00000-0  30808-3 0  9994,2 52664  53.2167 302.3566 0001737  45.7176 101.9558 15.08844842 12356,6917.866,95.437,540.932,538.529,0.0
52664.0,STARLINK-4070,PAYLOAD,2022-08-01 22:00:00,15.08881221,0.0001692,53.2162,300.8592,47.4879,111.7854,-0.0047122,-0.00074591,0.0,0 STARLINK-4070,1 52664U 22053J   22213.91667824 -.00074591  00000-0 -47122-2 0  9994,2 52664  53.2162 300.8592 0001692  47.4879 111.7854 15.08881221  1305,6917.754,95.435,540.79,538.4490000000002,0.0
52664.0,STARLINK-4070,PAYLOAD,2022-08-02 14:00:01,15.08818884,0.0001861,53.216,297.8675,48.27,134.2043,0.00087099,0.00013593,0.0,0 STARLINK-4070,1 52664U 22053J   22214.58334491  .00013593  00000-0  87099-3 0  9990,2 52664  53.2160 297.8675 0001861  48.2700 134.2043 15.08818884 12509,6917.945,95.439,541.097,538.523,0.0
52664.0,STARLINK-4070,PAYLOAD,2022-08-03 14:00:01,15.08825396,0.0001931,53.2158,293.3782,47.6902,169.5459,0.0014959,0.0002359,0.0,0 STARLINK-4070,1 52664U 22053J   22215.58334491  .00023590  00000-0  14959-2 0  9993,2 52664  53.2158 293.3782 0001931  47.6902 169.5459 15.08825396  1305,6917.925,95.438,541.126,538.4540000000002,0.0
52664.0,STARLINK-4070,PAYLOAD,2022-08-03 20:00:01,15.08856599,0.0001875,53.2156,292.255,47.1671,88.7545,-0.0016503,-0.00026469,0.0,0 STARLINK-4070,1 52664U 22053J   22215.83334491 -.00026469  00000-0 -16503-2 0  9998,2 52664  53.2156 292.2550 0001875  47.1671  88.7545 15.08856599 12690,6917.83,95.437,540.992,538.398,0.0
